{
  "type": "FeatureCollection",
  "features": [
    {
      "type": "Feature",
      "properties": {
        "norad_id": 66439,
        "name": "STARLINK-35327",
        "group": "last-30-days",
        "lat": 32.01954145244649,
        "lon": 119.431676845403,
        "alt_km": 409.83968444281163,
        "timestamp": "2025-12-07T14:37:03.993024+00:00",
        "meta_object_name": "STARLINK-35327",
        "meta_object_id": "2025-259T",
        "meta_epoch": "2025-12-06T15:12:44.352288",
        "meta_mean_motion": 15.50639465,
        "meta_eccentricity": 0.00023373,
        "meta_inclination": 43.0013,
        "meta_ra_of_asc_node": 82.9909,
        "meta_arg_of_pericenter": 280.0229,
        "meta_mean_anomaly": 80.0367,
        "meta_ephemeris_type": 0,
        "meta_classification_type": "U",
        "meta_norad_cat_id": 66439,
        "meta_element_set_no": 999,
        "meta_rev_at_epoch": 522,
        "meta_bstar": 0.0023870781,
        "meta_mean_motion_dot": 0.00142587,
        "meta_mean_motion_ddot": 0,
        "tle_line1": "1 66439U 25259T   25340.63384667  .00142587  00000+0  23871-2 0  9997",
        "tle_line2": "2 66439  43.0013  82.9909 0002337 280.0229  80.0367 15.50639465  5223"
      },
      "geometry": {
        "type": "Point",
        "coordinates": [
          119.431676845403,
          32.01954145244649
        ]
      }
    },
    {
      "type": "Feature",
      "properties": {
        "norad_id": 66440,
        "name": "STARLINK-35405",
        "group": "last-30-days",
        "lat": 36.58935455931763,
        "lon": 130.0685311736982,
        "alt_km": 407.9802211582064,
        "timestamp": "2025-12-07T14:37:03.993036+00:00",
        "meta_object_name": "STARLINK-35405",
        "meta_object_id": "2025-259U",
        "meta_epoch": "2025-12-05T08:15:37.425888",
        "meta_mean_motion": 15.50623801,
        "meta_eccentricity": 0.00020429,
        "meta_inclination": 43.0001,
        "meta_ra_of_asc_node": 90.5135,
        "meta_arg_of_pericenter": 280.0264,
        "meta_mean_anomaly": 80.0366,
        "meta_ephemeris_type": 0,
        "meta_classification_type": "U",
        "meta_norad_cat_id": 66440,
        "meta_element_set_no": 999,
        "meta_rev_at_epoch": 502,
        "meta_bstar": 0.0023681414,
        "meta_mean_motion_dot": 0.0014135,
        "meta_mean_motion_ddot": 0,
        "tle_line1": "1 66440U 25259U   25339.34418317  .00141350  00000+0  23681-2 0  9991",
        "tle_line2": "2 66440  43.0001  90.5135 0002042 280.0264  80.0366 15.50623801  5024"
      },
      "geometry": {
        "type": "Point",
        "coordinates": [
          130.0685311736982,
          36.58935455931763
        ]
      }
    },
    {
      "type": "Feature",
      "properties": {
        "norad_id": 66441,
        "name": "STARLINK-35426",
        "group": "last-30-days",
        "lat": 37.55019990594079,
        "lon": 132.83026389270537,
        "alt_km": 407.6865299523952,
        "timestamp": "2025-12-07T14:37:03.993047+00:00",
        "meta_object_name": "STARLINK-35426",
        "meta_object_id": "2025-259V",
        "meta_epoch": "2025-12-05T08:15:07.746624",
        "meta_mean_motion": 15.50636009,
        "meta_eccentricity": 0.00024039,
        "meta_inclination": 43,
        "meta_ra_of_asc_node": 90.5091,
        "meta_arg_of_pericenter": 280.7143,
        "meta_mean_anomaly": 79.3447,
        "meta_ephemeris_type": 0,
        "meta_classification_type": "U",
        "meta_norad_cat_id": 66441,
        "meta_element_set_no": 999,
        "meta_rev_at_epoch": 502,
        "meta_bstar": 0.0027168775,
        "meta_mean_motion_dot": 0.00162736,
        "meta_mean_motion_ddot": 0,
        "tle_line1": "1 66441U 25259V   25339.34383966  .00162736  00000+0  27169-2 0  9999",
        "tle_line2": "2 66441  43.0000  90.5091 0002403 280.7143  79.3447 15.50636009  5024"
      },
      "geometry": {
        "type": "Point",
        "coordinates": [
          132.83026389270537,
          37.55019990594079
        ]
      }
    },
    {
      "type": "Feature",
      "properties": {
        "norad_id": 66442,
        "name": "STARLINK-34724",
        "group": "last-30-days",
        "lat": 37.49198566287672,
        "lon": 132.6587789642454,
        "alt_km": 408.29272119110556,
        "timestamp": "2025-12-07T14:37:03.993059+00:00",
        "meta_object_name": "STARLINK-34724",
        "meta_object_id": "2025-259W",
        "meta_epoch": "2025-12-06T13:37:01.226784",
        "meta_mean_motion": 15.50746054,
        "meta_eccentricity": 0.00014223,
        "meta_inclination": 43.0003,
        "meta_ra_of_asc_node": 83.3503,
        "meta_arg_of_pericenter": 255.0351,
        "meta_mean_anomaly": 105.0352,
        "meta_ephemeris_type": 0,
        "meta_classification_type": "U",
        "meta_norad_cat_id": 66442,
        "meta_element_set_no": 999,
        "meta_rev_at_epoch": 521,
        "meta_bstar": 0.0031841465,
        "meta_mean_motion_dot": 0.00192258,
        "meta_mean_motion_ddot": 0,
        "tle_line1": "1 66442U 25259W   25340.56737531  .00192258  00000+0  31841-2 0  9991",
        "tle_line2": "2 66442  43.0003  83.3503 0001422 255.0351 105.0352 15.50746054  5217"
      },
      "geometry": {
        "type": "Point",
        "coordinates": [
          132.6587789642454,
          37.49198566287672
        ]
      }
    },
    {
      "type": "Feature",
      "properties": {
        "norad_id": 66443,
        "name": "STARLINK-35219",
        "group": "last-30-days",
        "lat": 38.1477837554011,
        "lon": 134.6909074803851,
        "alt_km": 408.551048138851,
        "timestamp": "2025-12-07T14:37:03.993069+00:00",
        "meta_object_name": "STARLINK-35219",
        "meta_object_id": "2025-259X",
        "meta_epoch": "2025-12-06T13:36:31.548384",
        "meta_mean_motion": 15.50724046,
        "meta_eccentricity": 0.00015671,
        "meta_inclination": 43.0012,
        "meta_ra_of_asc_node": 83.3472,
        "meta_arg_of_pericenter": 246.0575,
        "meta_mean_anomaly": 114.0122,
        "meta_ephemeris_type": 0,
        "meta_classification_type": "U",
        "meta_norad_cat_id": 66443,
        "meta_element_set_no": 999,
        "meta_rev_at_epoch": 510,
        "meta_bstar": 0.0027615281,
        "meta_mean_motion_dot": 0.00166001,
        "meta_mean_motion_ddot": 0,
        "tle_line1": "1 66443U 25259X   25340.56703181  .00166001  00000+0  27615-2 0  9997",
        "tle_line2": "2 66443  43.0012  83.3472 0001567 246.0575 114.0122 15.50724046  5101"
      },
      "geometry": {
        "type": "Point",
        "coordinates": [
          134.6909074803851,
          38.1477837554011
        ]
      }
    },
    {
      "type": "Feature",
      "properties": {
        "norad_id": 66444,
        "name": "STARLINK-35360",
        "group": "last-30-days",
        "lat": 39.98833899012771,
        "lon": 141.40058457086812,
        "alt_km": 409.48370489423814,
        "timestamp": "2025-12-07T14:37:03.993079+00:00",
        "meta_object_name": "STARLINK-35360",
        "meta_object_id": "2025-259Y",
        "meta_epoch": "2025-12-06T15:07:47.723808",
        "meta_mean_motion": 15.50706932,
        "meta_eccentricity": 0.00032908,
        "meta_inclination": 43.001,
        "meta_ra_of_asc_node": 82.962,
        "meta_arg_of_pericenter": 267.8962,
        "meta_mean_anomaly": 92.1521,
        "meta_ephemeris_type": 0,
        "meta_classification_type": "U",
        "meta_norad_cat_id": 66444,
        "meta_element_set_no": 999,
        "meta_rev_at_epoch": 522,
        "meta_bstar": 0.0024220976,
        "meta_mean_motion_dot": 0.00145089,
        "meta_mean_motion_ddot": 0,
        "tle_line1": "1 66444U 25259Y   25340.63041347  .00145089  00000+0  24221-2 0  9998",
        "tle_line2": "2 66444  43.0010  82.9620 0003290 267.8962  92.1521 15.50706932  5222"
      },
      "geometry": {
        "type": "Point",
        "coordinates": [
          141.40058457086812,
          39.98833899012771
        ]
      }
    },
    {
      "type": "Feature",
      "properties": {
        "norad_id": 66445,
        "name": "STARLINK-34698",
        "group": "last-30-days",
        "lat": 38.84861066074889,
        "lon": 137.04368781586533,
        "alt_km": 408.439446698746,
        "timestamp": "2025-12-07T14:37:03.993089+00:00",
        "meta_object_name": "STARLINK-34698",
        "meta_object_id": "2025-259Z",
        "meta_epoch": "2025-12-06T13:36:01.846656",
        "meta_mean_motion": 15.50730706,
        "meta_eccentricity": 0.00016523,
        "meta_inclination": 43.0011,
        "meta_ra_of_asc_node": 83.3434,
        "meta_arg_of_pericenter": 246.4478,
        "meta_mean_anomaly": 113.6208,
        "meta_ephemeris_type": 0,
        "meta_classification_type": "U",
        "meta_norad_cat_id": 66445,
        "meta_element_set_no": 999,
        "meta_rev_at_epoch": 510,
        "meta_bstar": 0.0028741918,
        "meta_mean_motion_dot": 0.00172984,
        "meta_mean_motion_ddot": 0,
        "tle_line1": "1 66445U 25259Z   25340.56668804  .00172984  00000+0  28742-2 0  9990",
        "tle_line2": "2 66445  43.0011  83.3434 0001652 246.4478 113.6208 15.50730706  5101"
      },
      "geometry": {
        "type": "Point",
        "coordinates": [
          137.04368781586533,
          38.84861066074889
        ]
      }
    }
  ]
}